{"type": "FeatureCollection", "features": [ {"type": "Feature", "properties": {"norad_id": 41836, "name": "HIMAWARI-9", "group": "weather", "lat": -0.004637513855309013, "lon": -42.23130312372603, "alt_km": 35777.419860938615, "timestamp": "2025-12-03T06:58:42.884031+00:00", "meta": {"OBJECT_NAME": "HIMAWARI-9", "OBJECT_ID": "2016-064A", "EPOCH": "2025-12-02T14:27:13.680288", "MEAN_MOTION": 1.00267704, "ECCENTRICITY": 0.0002434, "INCLINATION": 0.0196, "RA_OF_ASC_NODE": 328.9268, "ARG_OF_PERICENTER": 333.8392, "MEAN_ANOMALY": 126.4815, "EPHEMERIS_TYPE": 0, "CLASSIFICATION_TYPE": "U", "NORAD_CAT_ID": 41836, "ELEMENT_SET_NO": 999, "REV_AT_EPOCH": 3323, "BSTAR": 0, "MEAN_MOTION_DOT": 0, "MEAN_MOTION_DDOT": 0}, "tle": {"line1": "1 41836U 16064A   25336.60224167  .00000000  00000+0  00000+0 0  9994", "line2": "2 41836   0.0196 328.9268 0002434 333.8392 126.4815  1.00267704 33237"}}, "geometry": {"type": "Point", "coordinates": [-42.23130312372603, -0.004637513855309013]}}, {"type": "Feature", "properties": {"norad_id": 41866, "name": "GOES 16", "group": "weather", "lat": 0.004810869908128515, "lon": 72.36686890549069, "alt_km": 35800.70646394002, "timestamp": "2025-12-03T06:58:42.884044+00:00", "meta": {"OBJECT_NAME": "GOES 16", "OBJECT_ID": "2016-071A", "EPOCH": "2025-12-02T16:42:34.602048", "MEAN_MOTION": 1.00270598, "ECCENTRICITY": 0.000338, "INCLINATION": 0.057, "RA_OF_ASC_NODE": 107.5748, "ARG_OF_PERICENTER": 148.8132, "MEAN_ANOMALY": 321.3841, "EPHEMERIS_TYPE": 0, "CLASSIFICATION_TYPE": "U", "NORAD_CAT_ID": 41866, "ELEMENT_SET_NO": 999, "REV_AT_EPOCH": 3313, "BSTAR": 0, "MEAN_MOTION_DOT": -7.1e-07, "MEAN_MOTION_DDOT": 0}, "tle": {"line1": "1 41866U 16071A   25336.69623382 -.00000071  00000+0  00000+0 0  9995", "line2": "2 41866   0.0570 107.5748 0003380 148.8132 321.3841  1.00270598 33136"}}, "geometry": {"type": "Point", "coordinates": [72.36686890549069, 0.004810869908128515]}}, {"type": "Feature", "properties": {"norad_id": 41882, "name": "FENGYUN 4A", "group": "weather", "lat": -1.1392953290820504, "lon": -59.195377083102876, "alt_km": 35779.50556661928, "timestamp": "2025-12-03T06:58:42.884056+00:00", "meta": {"OBJECT_NAME": "FENGYUN 4A", "OBJECT_ID": "2016-077A", "EPOCH": "2025-12-02T16:19:38.754624", "MEAN_MOTION": 1.00278613, "ECCENTRICITY": 0.0005024, "INCLINATION": 1.8216, "RA_OF_ASC_NODE": 82.4893, "ARG_OF_PERICENTER": 141.3975, "MEAN_ANOMALY": 216.5145, "EPHEMERIS_TYPE": 0, "CLASSIFICATION_TYPE": "U", "NORAD_CAT_ID": 41882, "ELEMENT_SET_NO": 999, "REV_AT_EPOCH": 3295, "BSTAR": 0, "MEAN_MOTION_DOT": -3.37e-06, "MEAN_MOTION_DDOT": 0}, "tle": {"line1": "1 41882U 16077A   25336.68030966 -.00000337  00000+0  00000+0 0  9993", "line2": "2 41882   1.8216  82.4893 0005024 141.3975 216.5145  1.00278613 32959"}}, "geometry": {"type": "Point", "coordinates": [-59.195377083102876, -1.1392953290820504]}}, {"type": "Feature", "properties": {"norad_id": 41884, "name": "CYGFM05", "group": "weather", "lat": -10.122627169999605, "lon": -56.364811062471766, "alt_km": 427.0729227238071, "timestamp": "2025-12-03T06:58:42.884067+00:00", "meta": {"OBJECT_NAME": "CYGFM05", "OBJECT_ID": "2016-078A", "EPOCH": "2025-12-02T19:17:16.771776", "MEAN_MOTION": 15.47070837, "ECCENTRICITY": 0.0009441, "INCLINATION": 34.9579, "RA_OF_ASC_NODE": 112.0079, "ARG_OF_PERICENTER": 87.4648, "MEAN_ANOMALY": 272.7154, "EPHEMERIS_TYPE": 0, "CLASSIFICATION_TYPE": "U", "NORAD_CAT_ID": 41884, "ELEMENT_SET_NO": 999, "REV_AT_EPOCH": 49822, "BSTAR": 0.00046464, "MEAN_MOTION_DOT": 0.00024302, "MEAN_MOTION_DDOT": 0}, "tle": {"line1": "1 41884U 16078A   25336.80366634  .00024302  00000+0  46464-3 0  9999", "line2": "2 41884  34.9579 112.0079 0009441  87.4648 272.7154 15.47070837498224"}}, "geometry": {"type": "Point", "coordinates": [-56.364811062471766, -10.122627169999605]}}, {"type": "Feature", "properties": {"norad_id": 41885, "name": "CYGFM04", "group": "weather", "lat": -8.486731789730536, "lon": 71.52955075140638, "alt_km": 421.43076507846126, "timestamp": "2025-12-03T06:58:42.884078+00:00", "meta": {"OBJECT_NAME": "CYGFM04", "OBJECT_ID": "2016-078B", "EPOCH": "2025-12-02T17:07:43.442400", "MEAN_MOTION": 15.49715987, "ECCENTRICITY": 0.0008462, "INCLINATION": 34.9339, "RA_OF_ASC_NODE": 87.6561, "ARG_OF_PERICENTER": 117.1604, "MEAN_ANOMALY": 242.9982, "EPHEMERIS_TYPE": 0, "CLASSIFICATION_TYPE": "U", "NORAD_CAT_ID": 41885, "ELEMENT_SET_NO": 999, "REV_AT_EPOCH": 49838, "BSTAR": 0.0013564, "MEAN_MOTION_DOT": 0.00078467, "MEAN_MOTION_DDOT": 0}, "tle": {"line1": "1 41885U 16078B   25336.71369725  .00078467  00000+0  13564-2 0  9999", "line2": "2 41885  34.9339  87.6561 0008462 117.1604 242.9982 15.49715987498386"}}, "geometry": {"type": "Point", "coordinates": [71.52955075140638, -8.486731789730536]}}, {"type": "Feature", "properties": {"norad_id": 41886, "name": "CYGFM02", "group": "weather", "lat": -25.3057711403235, "lon": 39.69778996046404, "alt_km": 421.81483323551583, "timestamp": "2025-12-03T06:58:42.884089+00:00", "meta": {"OBJECT_NAME": "CYGFM02", "OBJECT_ID": "2016-078C", "EPOCH": "2025-12-02T17:17:02.334624", "MEAN_MOTION": 15.51057984, "ECCENTRICITY": 0.0010167, "INCLINATION": 34.943, "RA_OF_ASC_NODE": 86.0684, "ARG_OF_PERICENTER": 116.2207, "MEAN_ANOMALY": 243.9561, "EPHEMERIS_TYPE": 0, "CLASSIFICATION_TYPE": "U", "NORAD_CAT_ID": 41886, "ELEMENT_SET_NO": 999, "REV_AT_EPOCH": 49851, "BSTAR": 0.00048914, "MEAN_MOTION_DOT": 0.00029486, "MEAN_MOTION_DDOT": 0}, "tle": {"line1": "1 41886U 16078C   25336.72016591  .00029486  00000+0  48914-3 0  9996", "line2": "2 41886  34.9430  86.0684 0010167 116.2207 243.9561 15.51057984498510"}}, "geometry": {"type": "Point", "coordinates": [39.69778996046404, -25.3057711403235]}}, {"type": "Feature", "properties": {"norad_id": 41887, "name": "CYGFM01", "group": "weather", "lat": -22.737630432950027, "lon": -31.86749687745726, "alt_km": 429.5444811897096, "timestamp": "2025-12-03T06:58:42.884099+00:00", "meta": {"OBJECT_NAME": "CYGFM01", "OBJECT_ID": "2016-078D", "EPOCH": "2025-12-02T19:11:10.485024", "MEAN_MOTION": 15.4763314, "ECCENTRICITY": 0.0009079, "INCLINATION": 34.9409, "RA_OF_ASC_NODE": 114.4547, "ARG_OF_PERICENTER": 78.5673, "MEAN_ANOMALY": 281.6068, "EPHEMERIS_TYPE": 0, "CLASSIFICATION_TYPE": "U", "NORAD_CAT_ID": 41887, "ELEMENT_SET_NO": 999, "REV_AT_EPOCH": 49816, "BSTAR": 0.00046309, "MEAN_MOTION_DOT": 0.000247, "MEAN_MOTION_DDOT": 0}, "tle": {"line1": "1 41887U 16078D   25336.79942691  .00024700  00000+0  46309-3 0  9993", "line2": "2 41887  34.9409 114.4547 0009079  78.5673 281.6068 15.47633140498169"}}, "geometry": {"type": "Point", "coordinates": [-31.86749687745726, -22.737630432950027]}}, {"type": "Feature", "properties": {"norad_id": 41888, "name": "CYGFM08", "group": "weather", "lat": -26.10705434328254, "lon": -41.083968570194685, "alt_km": 425.34895909896295, "timestamp": "2025-12-03T06:58:42.884110+00:00", "meta": {"OBJECT_NAME": "CYGFM08", "OBJECT_ID": "2016-078E", "EPOCH": "2025-12-02T17:36:54.315072", "MEAN_MOTION": 15.48804218, "ECCENTRICITY": 0.0010648, "INCLINATION": 34.9446, "RA_OF_ASC_NODE": 97.9884, "ARG_OF_PERICENTER": 104.4395, "MEAN_ANOMALY": 255.7509, "EPHEMERIS_TYPE": 0, "CLASSIFICATION_TYPE": "U", "NORAD_CAT_ID": 41888, "ELEMENT_SET_NO": 999, "REV_AT_EPOCH": 49838, "BSTAR": 0.00048806, "MEAN_MOTION_DOT": 0.00027152, "MEAN_MOTION_DDOT": 0}, "tle": {"line1": "1 41888U 16078E   25336.73396198  .00027152  00000+0  48806-3 0  9991", "line2": "2 41888  34.9446  97.9884 0010648 104.4395 255.7509 15.48804218498387"}}, "geometry": {"type": "Point", "coordinates": [-41.083968570194685, -26.10705434328254]}}, {"type": "Feature", "properties": {"norad_id": 41890, "name": "CYGFM07", "group": "weather", "lat": -10.35891278424979, "lon": -81.44748583365882, "alt_km": 416.53805519728576, "timestamp": "2025-12-03T06:58:42.884121+00:00", "meta": {"OBJECT_NAME": "CYGFM07", "OBJECT_ID": "2016-078G", "EPOCH": "2025-12-02T17:45:25.524000", "MEAN_MOTION": 15.49376336, "ECCENTRICITY": 0.0008905, "INCLINATION": 34.947, "RA_OF_ASC_NODE": 86.9867, "ARG_OF_PERICENTER": 122.8145, "MEAN_ANOMALY": 237.3435, "EPHEMERIS_TYPE": 0, "CLASSIFICATION_TYPE": "U", "NORAD_CAT_ID": 41890, "ELEMENT_SET_NO": 999, "REV_AT_EPOCH": 49840, "BSTAR": 0.00048975, "MEAN_MOTION_DOT": 0.00027786, "MEAN_MOTION_DDOT": 0}, "tle": {"line1": "1 41890U 16078G   25336.73987875  .00027786  00000+0  48975-3 0  9992", "line2": "2 41890  34.9470  86.9867 0008905 122.8145 237.3435 15.49376336498409"}}, "geometry": {"type": "Point", "coordinates": [-81.44748583365882, -10.35891278424979]}}, {"type": "Feature", "properties": {"norad_id": 41891, "name": "CYGFM03", "group": "weather", "lat": 19.68530017525911, "lon": 116.11403807142693, "alt_km": 413.62807942712243, "timestamp": "2025-12-03T06:58:42.884140+00:00", "meta": {"OBJECT_NAME": "CYGFM03", "OBJECT_ID": "2016-078H", "EPOCH": "2025-12-02T16:54:19.672704", "MEAN_MOTION": 15.49277167, "ECCENTRICITY": 0.0008247, "INCLINATION": 34.9422, "RA_OF_ASC_NODE": 89.1307, "ARG_OF_PERICENTER": 109.0477, "MEAN_ANOMALY": 251.1138, "EPHEMERIS_TYPE": 0, "CLASSIFICATION_TYPE": "U", "NORAD_CAT_ID": 41891, "ELEMENT_SET_NO": 999, "REV_AT_EPOCH": 49837, "BSTAR": 0.00047863, "MEAN_MOTION_DOT": 0.0002705, "MEAN_MOTION_DDOT": 0}, "tle": {"line1": "1 41891U 16078H   25336.70439436  .00027050  00000+0  47863-3 0  9994", "line2": "2 41891  34.9422  89.1307 0008247 109.0477 251.1138 15.49277167498377"}}, "geometry": {"type": "Point", "coordinates": [116.11403807142693, 19.68530017525911]}}]}